start=new Date('2021-12-18T00:00:00.000Z').valueOf();
sats=[{"CENTER_NAME":"EARTH","REV_AT_EPOCH":"4435","NORAD_CAT_ID":"47795","MEAN_ANOMALY":"302.2663","MEAN_ELEMENT_THEORY":"SGP4","PERIAPSIS":"545.798","OBJECT_ID":"2021-018J","ARG_OF_PERICENTER":"57.8523","RCS_SIZE":"LARGE","CLASSIFICATION_TYPE":"U","RA_OF_ASC_NODE":"318.7575","OBJECT_TYPE":"PAYLOAD","GP_ID":"191901913","OBJECT_NAME":"STARLINK-2347","TLE_LINE2":"2 47795  53.0576 318.7575 0002030  57.8523 302.2663 15.06403259 44354","SEMIMAJOR_AXIS":"6925.339","FILE":"3243045","ELEMENT_SET_NO":"999","DECAY_DATE":null,"SITE":"AFETR","ECCENTRICITY":"0.00020300","REF_FRAME":"TEME","PERIOD":"95.592","BSTAR":"0.00008027200000","EPHEMERIS_TYPE":"0","MEAN_MOTION_DOT":"0.00000914","MEAN_MOTION_DDOT":"0.0000000000000","LAUNCH_DATE":"2021-03-11","TIME_SYSTEM":"UTC","MEAN_MOTION":"15.06403259","COUNTRY_CODE":"US","INCLINATION":"53.0576","TLE_LINE1":"1 47795U 21018J   21351.61363705  .00000914  00000-0  80272-4 0  9994","EPOCH":"2021-12-17T14:43:38.241120","APOAPSIS":"548.609"},{"CENTER_NAME":"EARTH","NORAD_CAT_ID":"47796","REV_AT_EPOCH":"4430","MEAN_ANOMALY":"305.5401","MEAN_ELEMENT_THEORY":"SGP4","PERIAPSIS":"545.793","ARG_OF_PERICENTER":"54.5777","RCS_SIZE":"LARGE","OBJECT_ID":"2021-018K","CLASSIFICATION_TYPE":"U","RA_OF_ASC_NODE":"318.6970","OBJECT_TYPE":"PAYLOAD","GP_ID":"191902163","OBJECT_NAME":"STARLINK-2373","FILE":"3243045","TLE_LINE2":"2 47796  53.0558 318.6970 0002022  54.5777 305.5401 15.06406641 44308","SEMIMAJOR_AXIS":"6925.328","ELEMENT_SET_NO":"999","DECAY_DATE":null,"SITE":"AFETR","ECCENTRICITY":"0.00020220","REF_FRAME":"TEME","PERIOD":"95.592","BSTAR":"0.00007714400000","EPHEMERIS_TYPE":"0","MEAN_MOTION_DOT":"0.00000868","MEAN_MOTION_DDOT":"0.0000000000000","LAUNCH_DATE":"2021-03-11","TIME_SYSTEM":"UTC","MEAN_MOTION":"15.06406641","COUNTRY_CODE":"US","EPOCH":"2021-12-17T15:04:51.871296","TLE_LINE1":"1 47796U 21018K   21351.62837814  .00000868  00000-0  77144-4 0  9995","INCLINATION":"53.0558","APOAPSIS":"548.594"},{"PERIAPSIS":"545.938","MEAN_ELEMENT_THEORY":"SGP4","MEAN_ANOMALY":"301.3464","REV_AT_EPOCH":"4392","NORAD_CAT_ID":"47797","CENTER_NAME":"EARTH","FILE":"3243045","TLE_LINE2":"2 47797  53.0563 344.4076 0001840  58.7705 301.3464 15.06400512 43924","SEMIMAJOR_AXIS":"6925.347","OBJECT_NAME":"STARLINK-2377","GP_ID":"191903414","OBJECT_TYPE":"PAYLOAD","RA_OF_ASC_NODE":"344.4076","CLASSIFICATION_TYPE":"U","OBJECT_ID":"2021-018L","ARG_OF_PERICENTER":"58.7705","RCS_SIZE":"MEDIUM","MEAN_MOTION_DDOT":"0.0000000000000","MEAN_MOTION_DOT":"0.00000416","EPHEMERIS_TYPE":"0","BSTAR":"0.00004686100000","PERIOD":"95.592","REF_FRAME":"TEME","ECCENTRICITY":"0.00018400","SITE":"AFETR","ELEMENT_SET_NO":"999","DECAY_DATE":null,"APOAPSIS":"548.486","INCLINATION":"53.0563","TLE_LINE1":"1 47797U 21018L   21351.46574485  .00000416  00000-0  46861-4 0  9991","EPOCH":"2021-12-17T11:10:40.355040","COUNTRY_CODE":"US","MEAN_MOTION":"15.06400512","TIME_SYSTEM":"UTC","LAUNCH_DATE":"2021-03-11"},{"APOAPSIS":"548.545","INCLINATION":"53.0567","TLE_LINE1":"1 47798U 21018M   21351.63943906  .00000700  00000-0  65868-4 0  9993","EPOCH":"2021-12-17T15:20:47.534784","COUNTRY_CODE":"US","MEAN_MOTION":"15.06403420","TIME_SYSTEM":"UTC","LAUNCH_DATE":"2021-03-11","MEAN_MOTION_DOT":"0.00000700","MEAN_MOTION_DDOT":"0.0000000000000","BSTAR":"0.00006586800000","EPHEMERIS_TYPE":"0","PERIOD":"95.592","REF_FRAME":"TEME","ECCENTRICITY":"0.00019370","SITE":"AFETR","DECAY_DATE":null,"ELEMENT_SET_NO":"999","TLE_LINE2":"2 47798  53.0567 318.6357 0001937  54.7960 305.3210 15.06403420 44307","FILE":"3243045","SEMIMAJOR_AXIS":"6925.338","OBJECT_NAME":"STARLINK-2379","GP_ID":"191903665","OBJECT_TYPE":"PAYLOAD","RA_OF_ASC_NODE":"318.6357","CLASSIFICATION_TYPE":"U","OBJECT_ID":"2021-018M","ARG_OF_PERICENTER":"54.7960","RCS_SIZE":"LARGE","PERIAPSIS":"545.862","MEAN_ELEMENT_THEORY":"SGP4","MEAN_ANOMALY":"305.3210","REV_AT_EPOCH":"4430","NORAD_CAT_ID":"47798","CENTER_NAME":"EARTH"},{"MEAN_ELEMENT_THEORY":"SGP4","PERIAPSIS":"545.939","CENTER_NAME":"EARTH","NORAD_CAT_ID":"47799","REV_AT_EPOCH":"4433","MEAN_ANOMALY":"300.9589","OBJECT_TYPE":"PAYLOAD","GP_ID":"191902413","OBJECT_NAME":"STARLINK-2380","FILE":"3243045","TLE_LINE2":"2 47799  53.0551 317.4746 0001839  59.1581 300.9589 15.06400273 44335","SEMIMAJOR_AXIS":"6925.348","RCS_SIZE":"LARGE","ARG_OF_PERICENTER":"59.1581","OBJECT_ID":"2021-018N","CLASSIFICATION_TYPE":"U","RA_OF_ASC_NODE":"317.4746","PERIOD":"95.592","BSTAR":"0.00003327100000","EPHEMERIS_TYPE":"0","MEAN_MOTION_DOT":"0.00000214","MEAN_MOTION_DDOT":"0.0000000000000","ELEMENT_SET_NO":"999","DECAY_DATE":null,"SITE":"AFETR","ECCENTRICITY":"0.00018390","REF_FRAME":"TEME","COUNTRY_CODE":"US","EPOCH":"2021-12-17T21:37:38.746560","TLE_LINE1":"1 47799U 21018N   21351.90114290  .00000214  00000-0  33271-4 0  9993","INCLINATION":"53.0551","APOAPSIS":"548.486","LAUNCH_DATE":"2021-03-11","TIME_SYSTEM":"UTC","MEAN_MOTION":"15.06400273"},{"LAUNCH_DATE":"2021-03-11","TIME_SYSTEM":"UTC","MEAN_MOTION":"15.06404551","COUNTRY_CODE":"US","TLE_LINE1":"1 47800U 21018P   21351.19343693  .00002177  00000-0  16499-3 0  9990","EPOCH":"2021-12-17T04:38:32.950752","INCLINATION":"53.0568","APOAPSIS":"548.614","ELEMENT_SET_NO":"999","DECAY_DATE":null,"SITE":"AFETR","ECCENTRICITY":"0.00020420","REF_FRAME":"TEME","PERIOD":"95.592","BSTAR":"0.00016499000000","EPHEMERIS_TYPE":"0","MEAN_MOTION_DDOT":"0.0000000000000","MEAN_MOTION_DOT":"0.00002177","RCS_SIZE":"LARGE","ARG_OF_PERICENTER":"57.7178","OBJECT_ID":"2021-018P","CLASSIFICATION_TYPE":"U","RA_OF_ASC_NODE":"320.6441","OBJECT_TYPE":"PAYLOAD","GP_ID":"191870894","OBJECT_NAME":"STARLINK-2381","FILE":"3242518","TLE_LINE2":"2 47800  53.0568 320.6441 0002042  57.7178 302.4009 15.06404551 43894","SEMIMAJOR_AXIS":"6925.335","CENTER_NAME":"EARTH","NORAD_CAT_ID":"47800","REV_AT_EPOCH":"4389","MEAN_ANOMALY":"302.4009","MEAN_ELEMENT_THEORY":"SGP4","PERIAPSIS":"545.785"},{"TIME_SYSTEM":"UTC","LAUNCH_DATE":"2021-03-11","MEAN_MOTION":"15.04775019","INCLINATION":"53.0568","EPOCH":"2021-12-17T14:57:34.394400","TLE_LINE1":"1 47801U 21018Q   21351.62331475 -.00000156  00000-0  85273-5 0  9998","COUNTRY_CODE":"US","APOAPSIS":"553.600","SITE":"AFETR","ELEMENT_SET_NO":"999","DECAY_DATE":null,"REF_FRAME":"TEME","ECCENTRICITY":"0.00020230","EPHEMERIS_TYPE":"0","BSTAR":"0.00000852730000","PERIOD":"95.695","MEAN_MOTION_DDOT":"0.0000000000000","MEAN_MOTION_DOT":"-0.00000156","CLASSIFICATION_TYPE":"U","OBJECT_ID":"2021-018Q","ARG_OF_PERICENTER":"51.1922","RCS_SIZE":"LARGE","RA_OF_ASC_NODE":"323.8059","GP_ID":"191902915","OBJECT_TYPE":"PAYLOAD","FILE":"3243045","TLE_LINE2":"2 47801  53.0568 323.8059 0002023  51.1922 308.9247 15.04775019 44231","SEMIMAJOR_AXIS":"6930.333","OBJECT_NAME":"STARLINK-2382","REV_AT_EPOCH":"4423","NORAD_CAT_ID":"47801","CENTER_NAME":"EARTH","MEAN_ANOMALY":"308.9247","PERIAPSIS":"550.796","MEAN_ELEMENT_THEORY":"SGP4"},{"CENTER_NAME":"EARTH","NORAD_CAT_ID":"47802","REV_AT_EPOCH":"4396","MEAN_ANOMALY":"166.8748","MEAN_ELEMENT_THEORY":"SGP4","PERIAPSIS":"546.122","RCS_SIZE":"LARGE","ARG_OF_PERICENTER":"193.2199","OBJECT_ID":"2021-018R","CLASSIFICATION_TYPE":"U","RA_OF_ASC_NODE":"343.5204","OBJECT_TYPE":"PAYLOAD","GP_ID":"191903166","OBJECT_NAME":"STARLINK-2383","TLE_LINE2":"2 47802  53.0490 343.5204 0001606 193.2199 166.8748 15.06393227 43962","SEMIMAJOR_AXIS":"6925.369","FILE":"3243045","ELEMENT_SET_NO":"999","DECAY_DATE":null,"SITE":"AFETR","ECCENTRICITY":"0.00016060","REF_FRAME":"TEME","PERIOD":"95.593","EPHEMERIS_TYPE":"0","BSTAR":"0.00001963600000","MEAN_MOTION_DDOT":"0.0000000000000","MEAN_MOTION_DOT":"0.00000011","LAUNCH_DATE":"2021-03-11","TIME_SYSTEM":"UTC","MEAN_MOTION":"15.06393227","COUNTRY_CODE":"US","EPOCH":"2021-12-17T16:07:54.205824","TLE_LINE1":"1 47802U 21018R   21351.67215516  .00000011  00000-0  19636-4 0  9999","INCLINATION":"53.0490","APOAPSIS":"548.347"},{"OBJECT_NAME":"STARLINK-2384","TLE_LINE2":"2 47803  53.0558 320.0031 0001997  56.4325 303.6854 15.06400999 43919","SEMIMAJOR_AXIS":"6925.345","FILE":"3242738","OBJECT_TYPE":"PAYLOAD","GP_ID":"191875508","RA_OF_ASC_NODE":"320.0031","OBJECT_ID":"2021-018S","RCS_SIZE":"LARGE","ARG_OF_PERICENTER":"56.4325","CLASSIFICATION_TYPE":"U","MEAN_ELEMENT_THEORY":"SGP4","PERIAPSIS":"545.828","MEAN_ANOMALY":"303.6854","CENTER_NAME":"EARTH","REV_AT_EPOCH":"4391","NORAD_CAT_ID":"47803","APOAPSIS":"548.593","COUNTRY_CODE":"US","INCLINATION":"53.0558","TLE_LINE1":"1 47803U 21018S   21351.33719325  .00001329  00000-0  10809-3 0  9995","EPOCH":"2021-12-17T08:05:33.496800","MEAN_MOTION":"15.06400999","LAUNCH_DATE":"2021-03-11","TIME_SYSTEM":"UTC","MEAN_MOTION_DOT":"0.00001329","MEAN_MOTION_DDOT":"0.0000000000000","PERIOD":"95.592","EPHEMERIS_TYPE":"0","BSTAR":"0.00010809000000","ECCENTRICITY":"0.00019970","REF_FRAME":"TEME","DECAY_DATE":null,"ELEMENT_SET_NO":"999","SITE":"AFETR"},{"MEAN_ANOMALY":"296.4803","REV_AT_EPOCH":"4429","NORAD_CAT_ID":"47804","CENTER_NAME":"EARTH","PERIAPSIS":"545.842","MEAN_ELEMENT_THEORY":"SGP4","RA_OF_ASC_NODE":"318.7340","CLASSIFICATION_TYPE":"U","OBJECT_ID":"2021-018T","ARG_OF_PERICENTER":"63.6389","RCS_SIZE":"LARGE","FILE":"3243045","TLE_LINE2":"2 47804  53.0570 318.7340 0001980  63.6389 296.4803 15.06400091 44291","SEMIMAJOR_AXIS":"6925.348","OBJECT_NAME":"STARLINK-2385","GP_ID":"191902164","OBJECT_TYPE":"PAYLOAD","REF_FRAME":"TEME","ECCENTRICITY":"0.00019800","SITE":"AFETR","DECAY_DATE":null,"ELEMENT_SET_NO":"999","MEAN_MOTION_DOT":"0.00000377","MEAN_MOTION_DDOT":"0.0000000000000","EPHEMERIS_TYPE":"0","BSTAR":"0.00004425200000","PERIOD":"95.592","MEAN_MOTION":"15.06400091","TIME_SYSTEM":"UTC","LAUNCH_DATE":"2021-03-11","APOAPSIS":"548.584","INCLINATION":"53.0570","EPOCH":"2021-12-17T14:48:57.089088","TLE_LINE1":"1 47804U 21018T   21351.61732742  .00000377  00000-0  44252-4 0  9997","COUNTRY_CODE":"US"}];
